satname,norad_id,inclination_deg,eccentricity,mean_motion_rev_per_day,perigee_km,apogee_km,l1,l2
STARLINK-1230,45189,53.1561,0.0003038,15.32830679,465.2919064747757,469.45123748310925,1 45189U 20012M   26133.31644281  .00029436  00000+0  92336-3 0  9995,2 45189  53.1561  99.2034 0003038  79.7392 280.3952 15.32830679342066
STARLINK-1234,45190,53.0413,0.000776,15.71022214,350.7486398159472,361.19998056936765,1 45190U 20012N   26133.63260728  .00044732  00000+0  35181-3 0  9993,2 45190  53.0413   5.4667 0007760 139.4916 220.6680 15.71022214346066
STARLINK-1269,45197,53.1557,0.0002947,15.32760771,465.56228314911914,469.5971485814507,1 45197U 20012V   26133.31244282  .00027967  00000+0  87995-3 0  9993,2 45197  53.1557  99.0722 0002947  60.9619 299.1678 15.32760771344817
STARLINK-1154,45198,53.0418,0.0002749,15.56371878,396.30487276211534,400.03048507458334,1 45198U 20012W   26133.94438008  .00066148  00000+0  92035-3 0  9999,2 45198  53.0418  56.1887 0002749  42.1016 318.0206 15.56371878345420
STARLINK-1199,45201,53.1558,0.0002719,15.32831345,465.5082958668836,469.2308823500398,1 45201U 20012Z   26133.15258931  .00030978  00000+0  97092-3 0  9992,2 45201  53.1558  84.0794 0002719  95.4645 264.6667 15.32831345345032
STARLINK-1209,45206,53.0407,0.0011062,15.62276037,373.60716739791224,388.5612684204143,1 45206U 20012AE  26133.95834597  .00080059  00000+0  88551-3 0  9998,2 45206  53.0407  16.9284 0011062 133.4138 226.7797 15.62276037345080
STARLINK-1231,45212,53.038,0.0004227,15.2623438,484.17939869991096,489.98325427312284,1 45212U 20012AL  26133.54567989  .00025633  00000+0  98648-3 0  9993,2 45212  53.0380  76.6347 0004227  28.1773 331.9452 15.26234380345116
STARLINK-1271,45217,53.1561,0.0002776,15.32863816,465.37262970107804,469.1732012861594,1 45217U 20012AR  26134.00002315 -.00004650  00000+0 -13301-3 0  9998,2 45217  53.1561  80.2746 0002776  94.5708 264.6130 15.32863816  5879
STARLINK-1191,45222,53.1558,0.0004855,15.36638409,452.7402926000823,459.37629623095927,1 45222U 20012AW  26133.19678005  .00032062  00000+0  88995-3 0  9995,2 45222  53.1558  57.7275 0004855 100.3329 259.8222 15.36638409345419
STARLINK-1212,45223,53.0418,0.0004425,15.6463647,371.29652233272554,377.2724153326417,1 45223U 20012AX  26133.93752872  .00035341  00000+0  36226-3 0  9996,2 45223  53.0418  32.9225 0004425  79.0095 281.1417 15.64636470345814
STARLINK-1215,45225,53.1564,0.0002536,15.33096549,464.84429559693035,468.3159361180924,1 45225U 20012AZ  26133.08847255  .00031954  00000+0  99274-3 0  9992,2 45225  53.1564  58.8141 0002536 119.2333 240.8923 15.33096549345341
STARLINK-1221,45227,53.0656,0.000261,15.44036908,432.43137579195445,435.98742061181656,1 45227U 20012BB  26133.22747176  .00009118  00000+0  20553-3 0  9992,2 45227  53.0656 323.2634 0002610 178.8639 181.2373 15.44036908346672
STARLINK-1222,45228,53.0543,0.0001065,15.53450793,405.9371441970434,407.3823058994785,1 45228U 20012BC  26133.10157042  .00022680  00000+0  35793-3 0  9998,2 45228  53.0543  33.0608 0001065  62.0226 298.0891 15.53450793345622
STARLINK-1226,45229,53.1573,0.000346,15.41413074,439.57823117173575,444.2977230558972,1 45229U 20012BD  26133.97336300  .00044413  00000+0  10498-2 0  9992,2 45229  53.1573  52.2446 0003460 112.3861 247.7512 15.41413074345455
STARLINK-1227,45230,53.1548,0.0004292,15.41470774,438.840681206103,444.69488747297964,1 45230U 20012BE  26133.20709120  .00031383  00000+0  74438-3 0  9991,2 45230  53.1548  55.9995 0004292 110.0403 250.1064 15.41470774345459
STARLINK-1246,45235,53.1552,0.000472,15.32984864,463.68169451742324,470.14342130009027,1 45235U 20012BK  26133.18987659  .00030923  00000+0  96441-3 0  9995,2 45235  53.1552  99.2860 0004720  96.8769 263.2770 15.32984864344855
STARLINK-1270,45237,53.0433,0.0004094,15.5781361,391.2136176011318,396.7586320157243,1 45237U 20012BM  26133.98646629  .00073913  00000+0  97277-3 0  9998,2 45237  53.0433  33.0009 0004094 104.3402 255.8064 15.57813610345815
STARLINK-1279,45360,53.036,0.0009288,15.71065158,349.5970661181309,362.1061233316914,1 45360U 20019A   26133.42057740  .00044681  00000+0  35053-3 0  9995,2 45360  53.0360 141.3192 0009288  26.0903 334.0581 15.71065158340803
STARLINK-1301,45361,53.0376,0.0006556,15.73259679,345.1773350139774,353.9987280753394,1 45361U 20019B   26133.43533227  .00047236  00000+0  33782-3 0  9992,2 45361  53.0376 144.3060 0006556  43.6681 316.4854 15.73259679340779
STARLINK-1262,45366,53.1543,0.000271,15.32029696,467.9015854886711,471.6131442344258,1 45366U 20019G   26133.53518965  .00026104  00000+0  84129-3 0  9992,2 45366  53.1543 223.9515 0002710 357.6616   2.4372 15.32029696339688
STARLINK-1273,45367,53.0462,0.0005679,15.53818184,401.737721198253,409.4426785518708,1 45367U 20019H   26133.88844215  .00054416  00000+0  83356-3 0  9999,2 45367  53.0462 202.3526 0005679 332.3419  27.7288 15.53818184340004
STARLINK-1277,45369,53.0441,0.0006574,15.59958684,383.3286314724246,392.2244545988078,1 45369U 20019K   26133.88166052  .00069937  00000+0  84909-3 0  9996,2 45369  53.0441 197.5998 0006574 322.9162  37.1395 15.59958684340073
STARLINK-1281,45370,53.1581,0.0003943,15.32994315,464.1854325104505,469.5834164057778,1 45370U 20019L   26133.95315399  .00028538  00000+0  89100-3 0  9996,2 45370  53.1581 221.7870 0003943 357.6319   2.4663 15.32994315339754
STARLINK-1300,45374,53.1603,0.0003965,15.332187,463.50278068786247,468.9303530663956,1 45374U 20019Q   26133.51570079  .00026207  00000+0  81365-3 0  9996,2 45374  53.1603 223.8045 0003965   4.9429 355.1612 15.33218700339680
STARLINK-1302,45375,53.0456,0.0004768,15.64904312,370.29478356353684,376.7331579292413,1 45375U 20019R   26133.87778495  .00032047  00000+0  32566-3 0  9996,2 45375  53.0456 194.4256 0004768 350.3546   9.7376 15.64904312340117
STARLINK-1304,45376,53.0441,0.0005893,15.59222871,385.9165704123443,393.8933846870832,1 45376U 20019S   26133.86402891  .00065092  00000+0  81374-3 0  9997,2 45376  53.0441 194.9129 0005893 342.8840  17.1973 15.59222871340101
STARLINK-1305,45377,53.0382,0.0010393,15.65188883,365.67944899830945,379.71172961844604,1 45377U 20019T   26133.49939873  .00030668  00000+0  30782-3 0  9990,2 45377  53.0382 176.7291 0010393 353.7429   6.3454 15.65188883340339
STARLINK-1319,45379,53.0405,0.0005269,15.73430311,345.55704477843574,352.64620884337,1 45379U 20019V   26133.94756134  .00048688  00000+0  34562-3 0  9990,2 45379  53.0405 167.3439 0005269  13.1656 346.9499 15.73430311340508
STARLINK-1266,45383,53.0448,0.0005421,15.55555782,396.862801276714,404.2122401920951,1 45383U 20019Z   26133.49881350  .00056141  00000+0  80673-3 0  9991,2 45383  53.0448 181.6710 0005421 338.4283  21.6498 15.55555782340258
STARLINK-1267,45384,53.046,0.0007616,15.61479657,378.23265799466935,388.5318040873908,1 45384U 20019AA  26133.37644851  .00062098  00000+0  71235-3 0  9994,2 45384  53.0460 173.9255 0007616  18.7569 341.3723 15.61479657340351
STARLINK-1272,45386,53.0394,0.0008599,15.66852131,362.116373400615,373.71823759521067,1 45386U 20019AC  26133.47382195  .00034425  00000+0  32279-3 0  9995,2 45386  53.0394 153.1101 0008599  12.8215 347.3017 15.66852131340655
STARLINK-1274,45387,53.0215,0.0009541,15.57434749,388.6220059174366,401.5466668715444,1 45387U 20019AD  26133.42213993  .00055245  00000+0  73970-3 0  9996,2 45387  53.0215 151.0039 0009541  33.9224 326.2396 15.57434749340676
STARLINK-1280,45388,53.0374,0.0005971,15.74073964,343.2518771267305,351.2833553194241,1 45388U 20019AE  26133.46125131  .00047610  00000+0  32884-3 0  9993,2 45388  53.0374 162.2676 0005971  18.9708 341.1532 15.74073964340515
STARLINK-1283,45389,53.0392,0.0004395,15.68090663,361.4013309295142,367.32798988901413,1 45389U 20019AF  26133.32102587  .00031646  00000+0  28310-3 0  9990,2 45389  53.0392 153.1888 0004395  37.2469 322.8851 15.68090663340649
STARLINK-1284,45390,53.0409,0.0004743,15.67169709,363.80668715632873,370.2051297192729,1 45390U 20019AG  26133.38484215  .00029658  00000+0  27578-3 0  9994,2 45390  53.0409 176.5547 0004743 325.7031  34.3677 15.67169709340310
STARLINK-1297,45395,53.0415,0.0006564,15.65660584,366.9092410561416,375.76995393333254,1 45395U 20019AM  26133.94803561  .00034062  00000+0  33532-3 0  9992,2 45395  53.0415 172.5204 0006564 337.2364  22.8358 15.65660584339601
STARLINK-1307,45397,53.053,0.0002133,15.54931745,400.90476738885263,403.7973235890586,1 45397U 20019AP  26133.50231859  .00020458  00000+0  30677-3 0  9992,2 45397  53.0530 178.5284 0002133  27.6254 332.4869 15.54931745340125
STARLINK-1255,45399,53.0357,0.0006716,15.62321225,376.41447770438845,385.49328857862474,1 45399U 20019AR  26133.29619809  .00056092  00000+0  62404-3 0  9991,2 45399  53.0357 149.0223 0006716  22.4121 337.7184 15.62321225340502
STARLINK-1260,45404,53.156,0.0005457,15.35535615,455.59882769687647,463.06123921719154,1 45404U 20019AW  26133.84478125  .00031559  00000+0  90760-3 0  9990,2 45404  53.1560 185.4882 0005457   2.5374 357.5656 15.35535615339963
STARLINK-1263,45405,53.1574,0.0003903,15.33037392,464.08463599511197,469.4277596253223,1 45405U 20019AX  26133.83735801  .00028769  00000+0  89687-3 0  9992,2 45405  53.1574 186.3116 0003903  22.9209 337.1967 15.33037392339951
STARLINK-1265,45406,53.1557,0.0005196,15.35834567,454.89043719263645,461.9950108418352,1 45406U 20019AY  26133.84326704  .00033843  00000+0  96300-3 0  9991,2 45406  53.1557 185.5498 0005196 356.8944   3.2026 15.35834567339967
STARLINK-1278,45408,53.04,0.0006841,15.66349986,364.74304616316294,373.9749702015579,1 45408U 20019BA  26133.41423980  .00031274  00000+0  30002-3 0  9993,2 45408  53.0400 174.2445 0006841 358.8794   1.2204 15.66349986340075
STARLINK-1296,45412,53.1563,0.0005876,15.36067245,453.73555084385407,461.76908797202304,1 45412U 20019BE  26133.56105831  .00031700  00000+0  89617-3 0  9996,2 45412  53.1563 186.6018 0005876 351.2298   8.8602 15.36067245339926
